IRIDIUM 33              
1 24946U 97051C   26065.37906648  .00000425  00000+0  14225-3 0  9996
2 24946  86.3877  33.0875 0006201 313.5122  46.5559 14.35099066490345
IRIDIUM 33 DEB          
1 33773U 97051L   26065.87779490  .00001603  00000+0  46831-3 0  9999
2 33773  86.4032  24.9132 0009112 229.0199 131.0214 14.43472391895613
IRIDIUM 33 DEB          
1 33775U 97051N   26065.83193227  .00002144  00000+0  65096-3 0  9990
2 33775  86.3671  13.6388 0010797 243.7071 148.5020 14.41747224893528
IRIDIUM 33 DEB          
1 33776U 97051P   26065.44796505  .00001253  00000+0  40449-3 0  9991
2 33776  86.4022  45.5890 0012364 286.5749 236.7440 14.38399365892857
IRIDIUM 33 DEB          
1 33777U 97051Q   26065.54301504  .00004073  00000+0  91528-3 0  9991
2 33777  86.3835 358.7303 0006670 357.7847   2.3330 14.56305514897538
IRIDIUM 33 DEB          
1 33850U 97051T   26065.60286090  .00001803  00000+0  53865-3 0  9992
2 33850  86.3467 354.1200 0008914 254.2074 224.1557 14.42474221893610
IRIDIUM 33 DEB          
1 33853U 97051W   26065.80668104  .00003075  00000+0  17329-2 0  9994
2 33853  85.9997 312.9511 0210249 339.0552 106.7626 13.99571342865212
IRIDIUM 33 DEB          
1 33860U 97051AD  26065.30015703  .00009608  00000+0  16337-2 0  9994
2 33860  86.3874 350.2131 0011597  56.8355  61.6910 14.68986715899484
IRIDIUM 33 DEB          
1 33862U 97051AF  26065.57392425  .00014329  00000+0  22455-2 0  9998
2 33862  86.4132   0.5001 0050520 133.7339  39.2053 14.71739816900553
IRIDIUM 33 DEB          
1 33866U 97051AK  26065.23251929  .00003746  00000+0  14742-2 0  9999
2 33866  86.2989  57.6806 0110698 253.8688 124.0361 14.25715906880000
IRIDIUM 33 DEB          
1 33870U 97051AP  26065.36401238  .00003800  00000+0  10516-2 0  9994
2 33870  86.3779  22.3885 0018164 266.2090 247.7659 14.46378034893455
IRIDIUM 33 DEB          
1 33881U 97051BA  26064.44889490  .00018798  00000+0  39275-2 0  9999
2 33881  86.3812  70.7148 0052790 256.6690 230.4684 14.58878105887059
IRIDIUM 33 DEB          
1 33884U 97051BD  26065.51334670  .00017101  00000+0  22426-2 0  9993
2 33884  86.3720 331.9434 0013669  27.7330  93.4873 14.80164689900851
IRIDIUM 33 DEB          
1 33886U 97051BF  26065.65114738  .00000882  00000+0  29575-3 0  9992
2 33886  86.3841  31.8841 0013313 341.1038 192.0703 14.36164324892562
IRIDIUM 33 DEB          
1 33887U 97051BG  26065.23666450  .00000597  00000+0  19366-3 0  9990
2 33887  86.3081 327.4334 0005529 348.1047 129.3787 14.37320804893640
IRIDIUM 33 DEB          
1 33953U 97051BN  26065.83367285  .00007121  00000+0  15987-2 0  9998
2 33953  86.3888  17.2447 0015809 166.1564 223.5700 14.56359357895271
