[{"OBJECT_NAME":"IRIDIUM 33","OBJECT_ID":"1997-051C","EPOCH":"2026-03-06T09:05:51.343872","MEAN_MOTION":14.35099066,"ECCENTRICITY":0.00062019,"INCLINATION":86.3877,"RA_OF_ASC_NODE":33.0875,"ARG_OF_PERICENTER":313.5122,"MEAN_ANOMALY":46.5559,"EPHEMERIS_TYPE":0,"CLASSIFICATION_TYPE":"U","NORAD_CAT_ID":24946,"ELEMENT_SET_NO":999,"REV_AT_EPOCH":49034,"BSTAR":0.00014224871,"MEAN_MOTION_DOT":4.25e-6,"MEAN_MOTION_DDOT":0},{"OBJECT_NAME":"IRIDIUM 33 DEB","OBJECT_ID":"1997-051L","EPOCH":"2026-03-06T21:04:01.479360","MEAN_MOTION":14.43472391,"ECCENTRICITY":0.0009112,"INCLINATION":86.4032,"RA_OF_ASC_NODE":24.9132,"ARG_OF_PERICENTER":229.0199,"MEAN_ANOMALY":131.0214,"EPHEMERIS_TYPE":0,"CLASSIFICATION_TYPE":"U","NORAD_CAT_ID":33773,"ELEMENT_SET_NO":999,"REV_AT_EPOCH":89561,"BSTAR":0.00046831,"MEAN_MOTION_DOT":1.603e-5,"MEAN_MOTION_DDOT":0},{"OBJECT_NAME":"IRIDIUM 33 DEB","OBJECT_ID":"1997-051N","EPOCH":"2026-03-06T19:57:58.948128","MEAN_MOTION":14.41747224,"ECCENTRICITY":0.0010797,"INCLINATION":86.3671,"RA_OF_ASC_NODE":13.6388,"ARG_OF_PERICENTER":243.7071,"MEAN_ANOMALY":148.502,"EPHEMERIS_TYPE":0,"CLASSIFICATION_TYPE":"U","NORAD_CAT_ID":33775,"ELEMENT_SET_NO":999,"REV_AT_EPOCH":89352,"BSTAR":0.00065096,"MEAN_MOTION_DOT":2.144e-5,"MEAN_MOTION_DDOT":0},{"OBJECT_NAME":"IRIDIUM 33 DEB","OBJECT_ID":"1997-051P","EPOCH":"2026-03-06T10:45:04.180320","MEAN_MOTION":14.38399365,"ECCENTRICITY":0.00123644,"INCLINATION":86.4022,"RA_OF_ASC_NODE":45.589,"ARG_OF_PERICENTER":286.5749,"MEAN_ANOMALY":236.744,"EPHEMERIS_TYPE":0,"CLASSIFICATION_TYPE":"U","NORAD_CAT_ID":33776,"ELEMENT_SET_NO":999,"REV_AT_EPOCH":89285,"BSTAR":0.00040449114,"MEAN_MOTION_DOT":1.253e-5,"MEAN_MOTION_DDOT":0},{"OBJECT_NAME":"IRIDIUM 33 DEB","OBJECT_ID":"1997-051Q","EPOCH":"2026-03-06T13:01:56.499456","MEAN_MOTION":14.56305514,"ECCENTRICITY":0.00066709,"INCLINATION":86.3835,"RA_OF_ASC_NODE":358.7303,"ARG_OF_PERICENTER":357.7847,"MEAN_ANOMALY":2.333,"EPHEMERIS_TYPE":0,"CLASSIFICATION_TYPE":"U","NORAD_CAT_ID":33777,"ELEMENT_SET_NO":999,"REV_AT_EPOCH":89753,"BSTAR":0.00091528102,"MEAN_MOTION_DOT":4.073e-5,"MEAN_MOTION_DDOT":0},{"OBJECT_NAME":"IRIDIUM 33 DEB","OBJECT_ID":"1997-051T","EPOCH":"2026-03-06T14:28:07.181760","MEAN_MOTION":14.42474221,"ECCENTRICITY":0.00089148,"INCLINATION":86.3467,"RA_OF_ASC_NODE":354.12,"ARG_OF_PERICENTER":254.2074,"MEAN_ANOMALY":224.1557,"EPHEMERIS_TYPE":0,"CLASSIFICATION_TYPE":"U","NORAD_CAT_ID":33850,"ELEMENT_SET_NO":999,"REV_AT_EPOCH":89361,"BSTAR":0.00053864997,"MEAN_MOTION_DOT":1.803e-5,"MEAN_MOTION_DDOT":0},{"OBJECT_NAME":"IRIDIUM 33 DEB","OBJECT_ID":"1997-051W","EPOCH":"2026-03-06T19:21:37.241856","MEAN_MOTION":13.99571342,"ECCENTRICITY":0.0210249,"INCLINATION":85.9997,"RA_OF_ASC_NODE":312.9511,"ARG_OF_PERICENTER":339.0552,"MEAN_ANOMALY":106.7626,"EPHEMERIS_TYPE":0,"CLASSIFICATION_TYPE":"U","NORAD_CAT_ID":33853,"ELEMENT_SET_NO":999,"REV_AT_EPOCH":86521,"BSTAR":0.0017329,"MEAN_MOTION_DOT":3.075e-5,"MEAN_MOTION_DDOT":0},{"OBJECT_NAME":"IRIDIUM 33 DEB","OBJECT_ID":"1997-051AD","EPOCH":"2026-03-06T07:12:13.567392","MEAN_MOTION":14.68986715,"ECCENTRICITY":0.00115973,"INCLINATION":86.3874,"RA_OF_ASC_NODE":350.2131,"ARG_OF_PERICENTER":56.8355,"MEAN_ANOMALY":61.691,"EPHEMERIS_TYPE":0,"CLASSIFICATION_TYPE":"U","NORAD_CAT_ID":33860,"ELEMENT_SET_NO":999,"REV_AT_EPOCH":89948,"BSTAR":0.0016337218,"MEAN_MOTION_DOT":9.608e-5,"MEAN_MOTION_DDOT":0},{"OBJECT_NAME":"IRIDIUM 33 DEB","OBJECT_ID":"1997-051AF","EPOCH":"2026-03-06T13:46:27.055200","MEAN_MOTION":14.71739816,"ECCENTRICITY":0.005052,"INCLINATION":86.4132,"RA_OF_ASC_NODE":0.5001,"ARG_OF_PERICENTER":133.7339,"MEAN_ANOMALY":39.2053,"EPHEMERIS_TYPE":0,"CLASSIFICATION_TYPE":"U","NORAD_CAT_ID":33862,"ELEMENT_SET_NO":999,"REV_AT_EPOCH":90055,"BSTAR":0.0022454518,"MEAN_MOTION_DOT":0.00014329,"MEAN_MOTION_DDOT":0},{"OBJECT_NAME":"IRIDIUM 33 DEB","OBJECT_ID":"1997-051AK","EPOCH":"2026-03-06T05:34:49.666656","MEAN_MOTION":14.25715906,"ECCENTRICITY":0.01106985,"INCLINATION":86.2989,"RA_OF_ASC_NODE":57.6806,"ARG_OF_PERICENTER":253.8688,"MEAN_ANOMALY":124.0361,"EPHEMERIS_TYPE":0,"CLASSIFICATION_TYPE":"U","NORAD_CAT_ID":33866,"ELEMENT_SET_NO":999,"REV_AT_EPOCH":88000,"BSTAR":0.0014741977,"MEAN_MOTION_DOT":3.746e-5,"MEAN_MOTION_DDOT":0},{"OBJECT_NAME":"IRIDIUM 33 DEB","OBJECT_ID":"1997-051AP","EPOCH":"2026-03-06T08:44:10.669632","MEAN_MOTION":14.46378034,"ECCENTRICITY":0.00181645,"INCLINATION":86.3779,"RA_OF_ASC_NODE":22.3885,"ARG_OF_PERICENTER":266.209,"MEAN_ANOMALY":247.7659,"EPHEMERIS_TYPE":0,"CLASSIFICATION_TYPE":"U","NORAD_CAT_ID":33870,"ELEMENT_SET_NO":999,"REV_AT_EPOCH":89345,"BSTAR":0.0010515503,"MEAN_MOTION_DOT":3.8e-5,"MEAN_MOTION_DDOT":0},{"OBJECT_NAME":"IRIDIUM 33 DEB","OBJECT_ID":"1997-051BA","EPOCH":"2026-03-05T10:46:24.519360","MEAN_MOTION":14.58878105,"ECCENTRICITY":0.005279,"INCLINATION":86.3812,"RA_OF_ASC_NODE":70.7148,"ARG_OF_PERICENTER":256.669,"MEAN_ANOMALY":230.4684,"EPHEMERIS_TYPE":0,"CLASSIFICATION_TYPE":"U","NORAD_CAT_ID":33881,"ELEMENT_SET_NO":999,"REV_AT_EPOCH":88705,"BSTAR":0.0039275,"MEAN_MOTION_DOT":0.00018798,"MEAN_MOTION_DDOT":0},{"OBJECT_NAME":"IRIDIUM 33 DEB","OBJECT_ID":"1997-051BD","EPOCH":"2026-03-06T12:19:13.154880","MEAN_MOTION":14.80164689,"ECCENTRICITY":0.00136695,"INCLINATION":86.372,"RA_OF_ASC_NODE":331.9434,"ARG_OF_PERICENTER":27.733,"MEAN_ANOMALY":93.4873,"EPHEMERIS_TYPE":0,"CLASSIFICATION_TYPE":"U","NORAD_CAT_ID":33884,"ELEMENT_SET_NO":999,"REV_AT_EPOCH":90085,"BSTAR":0.0022426188,"MEAN_MOTION_DOT":0.00017101,"MEAN_MOTION_DDOT":0},{"OBJECT_NAME":"IRIDIUM 33 DEB","OBJECT_ID":"1997-051BF","EPOCH":"2026-03-06T15:37:39.133632","MEAN_MOTION":14.36164324,"ECCENTRICITY":0.00133134,"INCLINATION":86.3841,"RA_OF_ASC_NODE":31.8841,"ARG_OF_PERICENTER":341.1038,"MEAN_ANOMALY":192.0703,"EPHEMERIS_TYPE":0,"CLASSIFICATION_TYPE":"U","NORAD_CAT_ID":33886,"ELEMENT_SET_NO":999,"REV_AT_EPOCH":89256,"BSTAR":0.0002957546,"MEAN_MOTION_DOT":8.82e-6,"MEAN_MOTION_DDOT":0},{"OBJECT_NAME":"IRIDIUM 33 DEB","OBJECT_ID":"1997-051BG","EPOCH":"2026-03-06T05:40:47.812800","MEAN_MOTION":14.37320804,"ECCENTRICITY":0.0005529,"INCLINATION":86.3081,"RA_OF_ASC_NODE":327.4334,"ARG_OF_PERICENTER":348.1047,"MEAN_ANOMALY":129.3787,"EPHEMERIS_TYPE":0,"CLASSIFICATION_TYPE":"U","NORAD_CAT_ID":33887,"ELEMENT_SET_NO":999,"REV_AT_EPOCH":89364,"BSTAR":0.00019366397,"MEAN_MOTION_DOT":5.97e-6,"MEAN_MOTION_DDOT":0},{"OBJECT_NAME":"IRIDIUM 33 DEB","OBJECT_ID":"1997-051BN","EPOCH":"2026-03-06T20:00:29.334240","MEAN_MOTION":14.56359357,"ECCENTRICITY":0.0015809,"INCLINATION":86.3888,"RA_OF_ASC_NODE":17.2447,"ARG_OF_PERICENTER":166.1564,"MEAN_ANOMALY":223.57,"EPHEMERIS_TYPE":0,"CLASSIFICATION_TYPE":"U","NORAD_CAT_ID":33953,"ELEMENT_SET_NO":999,"REV_AT_EPOCH":89527,"BSTAR":0.0015987,"MEAN_MOTION_DOT":7.121e-5,"MEAN_MOTION_DDOT":0}]
